{"type": "FeatureCollection", "features": [{"type": "Feature", "properties": {"naam": "Lijn 2"}, "geometry": {"type": "LineString", "coordinates": [[-0.385603, 45.679673], [-0.380453, 45.680393], [-0.377663, 45.679553], [-0.375561, 45.678624], [-0.373672, 45.680423], [-0.370325, 45.681142], [-0.367492, 45.680363], [-0.364403, 45.680453], [-0.362986, 45.679823], [-0.361098, 45.680363], [-0.357493, 45.680153], [-0.350412, 45.682642], [-0.346206, 45.684261], [-0.34213, 45.686959], [-0.339512, 45.689267], [-0.338997, 45.690826], [-0.334104, 45.695622], [-0.330457, 45.699249], [-0.324406, 45.70878], [-0.322002, 45.709859], [-0.318784, 45.710278], [-0.315522, 45.709859], [-0.311531, 45.707251], [-0.30548, 45.704074], [-0.303763, 45.700568], [-0.2993, 45.696911], [-0.296253, 45.692924], [-0.292605, 45.690856], [-0.286597, 45.688428], [-0.283593, 45.687588], [-0.28119, 45.686239], [-0.273079, 45.68468], [-0.265998, 45.683541], [-0.261578, 45.682462], [-0.258273, 45.680693], [-0.25042, 45.674366], [-0.245227, 45.672087], [-0.238747, 45.670647], [-0.234884, 45.671757], [-0.230507, 45.672027], [-0.225314, 45.674336], [-0.218233, 45.675715], [-0.211581, 45.676855], [-0.203213, 45.675985], [-0.19935, 45.676375], [-0.195659, 45.676675], [-0.189565, 45.679343], [-0.187162, 45.680633], [-0.183472, 45.680543], [-0.172957, 45.677784]]}}, {"type": "Feature", "properties": {"naam": "Lijn 3"}, "geometry": {"type": "LineString", "coordinates": [[-0.092956, 45.650938], [-0.090467, 45.651298], [-0.082828, 45.649858], [-0.076734, 45.648418], [-0.073215, 45.645778], [-0.068065, 45.639177], [-0.066949, 45.635337], [-0.062314, 45.635636], [-0.058195, 45.633536], [-0.059053, 45.630475], [-0.056049, 45.629335], [-0.054761, 45.626514], [-0.052787, 45.625373], [-0.053903, 45.622432], [-0.055705, 45.621531], [-0.056735, 45.616669], [-0.057422, 45.611866], [-0.053817, 45.60394], [-0.050041, 45.600697], [-0.044462, 45.599917], [-0.037767, 45.601538], [-0.034849, 45.605801], [-0.035106, 45.608744], [-0.032359, 45.612346], [-0.029699, 45.617749], [-0.025751, 45.61943], [-0.02618, 45.624173], [-0.020343, 45.628194], [-0.017854, 45.628794], [-0.014421, 45.630535], [-0.00764, 45.630115], [-0.001203, 45.627234], [0.001973, 45.624233], [0.00635, 45.619731], [0.006779, 45.615108], [0.009783, 45.611325], [0.01665, 45.607663], [0.020512, 45.608864], [0.023945, 45.605501], [0.032958, 45.606102], [0.03682, 45.608804], [0.038966, 45.613607], [0.043172, 45.617389], [0.043, 45.623812], [0.042742, 45.629635], [0.045403, 45.633596], [0.052441, 45.635636], [0.058106, 45.636777], [0.06008, 45.638517], [0.068062, 45.639777]]}}]}